{
  "type": "FeatureCollection",
  "features": [
    {
      "type": "Feature",
      "properties": {
        "norad_id": 44624,
        "name": "EUTELSAT 5 WEST B (EGNOS/PRN 121)",
        "group": "gnss",
        "lat": -0.08462227943139307,
        "lon": -113.06115443811981,
        "alt_km": 35771.71895726689,
        "timestamp": "2025-12-09T11:33:55.042704+00:00",
        "meta_object_name": "EUTELSAT 5 WEST B (EGNOS/PRN 121)",
        "meta_object_id": "2019-067A",
        "meta_epoch": "2025-12-09T03:16:38.254368",
        "meta_mean_motion": 1.00271055,
        "meta_eccentricity": 0.000352,
        "meta_inclination": 0.0643,
        "meta_ra_of_asc_node": 341.1369,
        "meta_arg_of_pericenter": 277.9406,
        "meta_mean_anomaly": 223.214,
        "meta_ephemeris_type": 0,
        "meta_classification_type": "U",
        "meta_norad_cat_id": 44624,
        "meta_element_set_no": 999,
        "meta_rev_at_epoch": 2253,
        "meta_bstar": 0,
        "meta_mean_motion_dot": -4e-07,
        "meta_mean_motion_ddot": 0,
        "tle_line1": "1 44624U 19067A   25343.13655387 -.00000040  00000+0  00000+0 0  9991",
        "tle_line2": "2 44624   0.0643 341.1369 0003520 277.9406 223.2140  1.00271055 22534"
      },
      "geometry": {
        "type": "Point",
        "coordinates": [
          -113.06115443811981,
          -0.08462227943139307
        ]
      }
    },
    {
      "type": "Feature",
      "properties": {
        "norad_id": 44709,
        "name": "BEIDOU-3 IGSO-3 (C40)",
        "group": "gnss",
        "lat": 54.4073429143476,
        "lon": -0.5895353992611357,
        "alt_km": 35849.79225254201,
        "timestamp": "2025-12-09T11:33:55.042725+00:00",
        "meta_object_name": "BEIDOU-3 IGSO-3 (C40)",
        "meta_object_id": "2019-073A",
        "meta_epoch": "2025-11-20T07:11:22.740000",
        "meta_mean_motion": 1.00250097,
        "meta_eccentricity": 0.0044538,
        "meta_inclination": 55.163,
        "meta_ra_of_asc_node": 283.159,
        "meta_arg_of_pericenter": 191.5856,
        "meta_mean_anomaly": 168.2409,
        "meta_ephemeris_type": 0,
        "meta_classification_type": "U",
        "meta_norad_cat_id": 44709,
        "meta_element_set_no": 999,
        "meta_rev_at_epoch": 2236,
        "meta_bstar": 0,
        "meta_mean_motion_dot": -2.06e-06,
        "meta_mean_motion_ddot": 0,
        "tle_line1": "1 44709U 19073A   25324.29956875 -.00000206  00000+0  00000+0 0  9998",
        "tle_line2": "2 44709  55.1630 283.1590 0044538 191.5856 168.2409  1.00250097 22360"
      },
      "geometry": {
        "type": "Point",
        "coordinates": [
          -0.5895353992611357,
          54.4073429143476
        ]
      }
    },
    {
      "type": "Feature",
      "properties": {
        "norad_id": 44793,
        "name": "BEIDOU-3 M22 (C44)",
        "group": "gnss",
        "lat": -29.37034448400612,
        "lon": -77.5464211083797,
        "alt_km": 21523.946425671893,
        "timestamp": "2025-12-09T11:33:55.042747+00:00",
        "meta_object_name": "BEIDOU-3 M22 (C44)",
        "meta_object_id": "2019-078A",
        "meta_epoch": "2025-12-09T00:00:40.080096",
        "meta_mean_motion": 1.86231694,
        "meta_eccentricity": 0.0005608,
        "meta_inclination": 54.1119,
        "meta_ra_of_asc_node": 306.5176,
        "meta_arg_of_pericenter": 23.0098,
        "meta_mean_anomaly": 337.0045,
        "meta_ephemeris_type": 0,
        "meta_classification_type": "U",
        "meta_norad_cat_id": 44793,
        "meta_element_set_no": 999,
        "meta_rev_at_epoch": 4110,
        "meta_bstar": 0,
        "meta_mean_motion_dot": -7.5e-07,
        "meta_mean_motion_ddot": 0,
        "tle_line1": "1 44793U 19078A   25343.00046389 -.00000075  00000+0  00000+0 0  9990",
        "tle_line2": "2 44793  54.1119 306.5176 0005608  23.0098 337.0045  1.86231694 41107"
      },
      "geometry": {
        "type": "Point",
        "coordinates": [
          -77.5464211083797,
          -29.37034448400612
        ]
      }
    },
    {
      "type": "Feature",
      "properties": {
        "norad_id": 44794,
        "name": "BEIDOU-3 M21 (C43)",
        "group": "gnss",
        "lat": -38.7040708353434,
        "lon": 161.9174924065084,
        "alt_km": 21541.125596044367,
        "timestamp": "2025-12-09T11:33:55.042763+00:00",
        "meta_object_name": "BEIDOU-3 M21 (C43)",
        "meta_object_id": "2019-078B",
        "meta_epoch": "2025-12-08T14:25:34.118976",
        "meta_mean_motion": 1.86227419,
        "meta_eccentricity": 0.00038351,
        "meta_inclination": 54.0855,
        "meta_ra_of_asc_node": 306.4969,
        "meta_arg_of_pericenter": 9.829,
        "meta_mean_anomaly": 350.1669,
        "meta_ephemeris_type": 0,
        "meta_classification_type": "U",
        "meta_norad_cat_id": 44794,
        "meta_element_set_no": 999,
        "meta_rev_at_epoch": 4110,
        "meta_bstar": 0,
        "meta_mean_motion_dot": -7.4e-07,
        "meta_mean_motion_ddot": 0,
        "tle_line1": "1 44794U 19078B   25342.60108934 -.00000074  00000+0  00000+0 0  9990",
        "tle_line2": "2 44794  54.0855 306.4969 0003835   9.8290 350.1669  1.86227419 41107"
      },
      "geometry": {
        "type": "Point",
        "coordinates": [
          161.9174924065084,
          -38.7040708353434
        ]
      }
    },
    {
      "type": "Feature",
      "properties": {
        "norad_id": 44850,
        "name": "COSMOS 2544 (759)",
        "group": "gnss",
        "lat": 23.67793679228785,
        "lon": 91.61311927978562,
        "alt_km": 19152.818946203897,
        "timestamp": "2025-12-09T11:33:55.042781+00:00",
        "meta_object_name": "COSMOS 2544 (759)",
        "meta_object_id": "2019-088A",
        "meta_epoch": "2025-12-08T00:57:27.919872",
        "meta_mean_motion": 2.13101724,
        "meta_eccentricity": 0.0013638,
        "meta_inclination": 65.4575,
        "meta_ra_of_asc_node": 80.1157,
        "meta_arg_of_pericenter": 249.1317,
        "meta_mean_anomaly": 110.7358,
        "meta_ephemeris_type": 0,
        "meta_classification_type": "U",
        "meta_norad_cat_id": 44850,
        "meta_element_set_no": 999,
        "meta_rev_at_epoch": 4664,
        "meta_bstar": 0,
        "meta_mean_motion_dot": -1e-07,
        "meta_mean_motion_ddot": 0,
        "tle_line1": "1 44850U 19088A   25342.03990648 -.00000010  00000+0  00000+0 0  9992",
        "tle_line2": "2 44850  65.4575  80.1157 0013638 249.1317 110.7358  2.13101724 46641"
      },
      "geometry": {
        "type": "Point",
        "coordinates": [
          91.61311927978562,
          23.67793679228785
        ]
      }
    },
    {
      "type": "Feature",
      "properties": {
        "norad_id": 44864,
        "name": "BEIDOU-3 M19 (C41)",
        "group": "gnss",
        "lat": 49.74136872536741,
        "lon": 120.73202287595912,
        "alt_km": 21560.40990263291,
        "timestamp": "2025-12-09T11:33:55.042798+00:00",
        "meta_object_name": "BEIDOU-3 M19 (C41)",
        "meta_object_id": "2019-090A",
        "meta_epoch": "2025-12-02T22:27:31.551840",
        "meta_mean_motion": 1.86231053,
        "meta_eccentricity": 0.00175607,
        "meta_inclination": 56.3847,
        "meta_ra_of_asc_node": 69.2872,
        "meta_arg_of_pericenter": 284.9296,
        "meta_mean_anomaly": 72.494,
        "meta_ephemeris_type": 0,
        "meta_classification_type": "U",
        "meta_norad_cat_id": 44864,
        "meta_element_set_no": 999,
        "meta_rev_at_epoch": 4057,
        "meta_bstar": 0,
        "meta_mean_motion_dot": -4.9e-07,
        "meta_mean_motion_ddot": 0,
        "tle_line1": "1 44864U 19090A   25336.93578185 -.00000049  00000+0  00000+0 0  9992",
        "tle_line2": "2 44864  56.3847  69.2872 0017560 284.9296  72.4940  1.86231053 40575"
      },
      "geometry": {
        "type": "Point",
        "coordinates": [
          120.73202287595912,
          49.74136872536741
        ]
      }
    },
    {
      "type": "Feature",
      "properties": {
        "norad_id": 44865,
        "name": "BEIDOU-3 M20 (C42)",
        "group": "gnss",
        "lat": 19.98225929793583,
        "lon": -124.86065359560403,
        "alt_km": 21558.478628317152,
        "timestamp": "2025-12-09T11:33:55.042816+00:00",
        "meta_object_name": "BEIDOU-3 M20 (C42)",
        "meta_object_id": "2019-090B",
        "meta_epoch": "2025-12-08T06:57:34.455168",
        "meta_mean_motion": 1.8623116,
        "meta_eccentricity": 0.00149301,
        "meta_inclination": 56.3913,
        "meta_ra_of_asc_node": 69.143,
        "meta_arg_of_pericenter": 297.776,
        "meta_mean_anomaly": 138.9742,
        "meta_ephemeris_type": 0,
        "meta_classification_type": "U",
        "meta_norad_cat_id": 44865,
        "meta_element_set_no": 999,
        "meta_rev_at_epoch": 4066,
        "meta_bstar": 0,
        "meta_mean_motion_dot": -4.5e-07,
        "meta_mean_motion_ddot": 0,
        "tle_line1": "1 44865U 19090B   25342.28998212 -.00000045  00000+0  00000+0 0  9991",
        "tle_line2": "2 44865  56.3913  69.1430 0014930 297.7760 138.9742  1.86231160 40662"
      },
      "geometry": {
        "type": "Point",
        "coordinates": [
          -124.86065359560403,
          19.98225929793583
        ]
      }
    }
  ]
}